[{"OBJECT_NAME":"GEESAT-5 01","OBJECT_ID":"2025-201A","EPOCH":"2026-03-09T16:09:44.414208","MEAN_MOTION":14.83771108,"ECCENTRICITY":0.00031214,"INCLINATION":49.9903,"RA_OF_ASC_NODE":141.1054,"ARG_OF_PERICENTER":18.6634,"MEAN_ANOMALY":341.4418,"EPHEMERIS_TYPE":0,"CLASSIFICATION_TYPE":"U","NORAD_CAT_ID":65550,"ELEMENT_SET_NO":999,"REV_AT_EPOCH":2702,"BSTAR":0.00034504263,"MEAN_MOTION_DOT":2.662e-5,"MEAN_MOTION_DDOT":0},{"OBJECT_NAME":"PEGASUS DEB","OBJECT_ID":"1994-029AGF","EPOCH":"2026-02-25T10:41:11.465376","MEAN_MOTION":14.30043747,"ECCENTRICITY":0.0298302,"INCLINATION":81.8186,"RA_OF_ASC_NODE":316.6615,"ARG_OF_PERICENTER":83.3795,"MEAN_ANOMALY":280.1245,"EPHEMERIS_TYPE":0,"CLASSIFICATION_TYPE":"U","NORAD_CAT_ID":39932,"ELEMENT_SET_NO":999,"REV_AT_EPOCH":60847,"BSTAR":0.00051483218,"MEAN_MOTION_DOT":2.184e-5,"MEAN_MOTION_DDOT":0}]
